{
  "type": "FeatureCollection",
  "features": [
    {
      "type": "Feature",
      "properties": {
        "norad_id": 63632,
        "name": "SHENZHOU-20 (SZ-20)",
        "group": "stations",
        "lat": 41.446492054474895,
        "lon": 138.09117283490514,
        "alt_km": 385.4133308236678,
        "timestamp": "2025-12-07T11:27:48.758229+00:00",
        "meta_object_name": "SHENZHOU-20 (SZ-20)",
        "meta_object_id": "2025-082A",
        "meta_epoch": "2025-12-06T21:14:35.052288",
        "meta_mean_motion": 15.58811356,
        "meta_eccentricity": 0.00094534,
        "meta_inclination": 41.4683,
        "meta_ra_of_asc_node": 52.2413,
        "meta_arg_of_pericenter": 344.5349,
        "meta_mean_anomaly": 15.5199,
        "meta_ephemeris_type": 0,
        "meta_classification_type": "U",
        "meta_norad_cat_id": 63632,
        "meta_element_set_no": 999,
        "meta_rev_at_epoch": 25530,
        "meta_bstar": 0.00035334049,
        "meta_mean_motion_dot": 0.00027906,
        "meta_mean_motion_ddot": 0,
        "tle_line1": "1 63632U 25082A   25340.88512792  .00027906  00000+0  35334-3 0  9997",
        "tle_line2": "2 63632  41.4683  52.2413 0009453 344.5349  15.5199 15.58811356255306"
      },
      "geometry": {
        "type": "Point",
        "coordinates": [
          138.09117283490514,
          41.446492054474895
        ]
      }
    },
    {
      "type": "Feature",
      "properties": {
        "norad_id": 64751,
        "name": "PROGRESS-MS 31",
        "group": "stations",
        "lat": 2.1797684558862094,
        "lon": -13.196668390752347,
        "alt_km": 417.08953663767625,
        "timestamp": "2025-12-07T11:27:48.758239+00:00",
        "meta_object_name": "PROGRESS-MS 31",
        "meta_object_id": "2025-146A",
        "meta_epoch": "2025-12-06T20:46:13.238400",
        "meta_mean_motion": 15.49374779,
        "meta_eccentricity": 0.00034973,
        "meta_inclination": 51.6304,
        "meta_ra_of_asc_node": 171.5636,
        "meta_arg_of_pericenter": 213.1314,
        "meta_mean_anomaly": 146.9456,
        "meta_ephemeris_type": 0,
        "meta_classification_type": "U",
        "meta_norad_cat_id": 64751,
        "meta_element_set_no": 999,
        "meta_rev_at_epoch": 675,
        "meta_bstar": 0.00025393652,
        "meta_mean_motion_dot": 0.0001375,
        "meta_mean_motion_ddot": 0,
        "tle_line1": "1 64751U 25146A   25340.86543100  .00013750  00000+0  25394-3 0  9993",
        "tle_line2": "2 64751  51.6304 171.5636 0003497 213.1314 146.9456 15.49374779  6750"
      },
      "geometry": {
        "type": "Point",
        "coordinates": [
          -13.196668390752347,
          2.1797684558862094
        ]
      }
    },
    {
      "type": "Feature",
      "properties": {
        "norad_id": 64786,
        "name": "TIANZHOU-9",
        "group": "stations",
        "lat": 41.44649206904633,
        "lon": 138.0911758722029,
        "alt_km": 385.41333107045375,
        "timestamp": "2025-12-07T11:27:48.758264+00:00",
        "meta_object_name": "TIANZHOU-9",
        "meta_object_id": "2025-149A",
        "meta_epoch": "2025-12-06T21:14:35.052288",
        "meta_mean_motion": 15.58811356,
        "meta_eccentricity": 0.00094534,
        "meta_inclination": 41.4683,
        "meta_ra_of_asc_node": 52.2413,
        "meta_arg_of_pericenter": 344.5349,
        "meta_mean_anomaly": 15.5199,
        "meta_ephemeris_type": 0,
        "meta_classification_type": "U",
        "meta_norad_cat_id": 64786,
        "meta_element_set_no": 999,
        "meta_rev_at_epoch": 25530,
        "meta_bstar": 0.00035334049,
        "meta_mean_motion_dot": 0.00027906,
        "meta_mean_motion_ddot": 0,
        "tle_line1": "1 64786U 25149A   25340.88512792  .00027906  00000+0  35334-3 0  9992",
        "tle_line2": "2 64786  41.4683  52.2413 0009453 344.5349  15.5199 15.58811356255307"
      },
      "geometry": {
        "type": "Point",
        "coordinates": [
          138.0911758722029,
          41.44649206904633
        ]
      }
    },
    {
      "type": "Feature",
      "properties": {
        "norad_id": 65077,
        "name": "CREW DRAGON 11",
        "group": "stations",
        "lat": 2.17976663245412,
        "lon": -13.196666945372124,
        "alt_km": 417.0895368235433,
        "timestamp": "2025-12-07T11:27:48.758275+00:00",
        "meta_object_name": "CREW DRAGON 11",
        "meta_object_id": "2025-166A",
        "meta_epoch": "2025-12-06T20:46:13.238400",
        "meta_mean_motion": 15.49374779,
        "meta_eccentricity": 0.00034973,
        "meta_inclination": 51.6304,
        "meta_ra_of_asc_node": 171.5636,
        "meta_arg_of_pericenter": 213.1314,
        "meta_mean_anomaly": 146.9456,
        "meta_ephemeris_type": 0,
        "meta_classification_type": "U",
        "meta_norad_cat_id": 65077,
        "meta_element_set_no": 999,
        "meta_rev_at_epoch": 214,
        "meta_bstar": 0.00025393652,
        "meta_mean_motion_dot": 0.0001375,
        "meta_mean_motion_ddot": 0,
        "tle_line1": "1 65077U 25166A   25340.86543100  .00013750  00000+0  25394-3 0  9997",
        "tle_line2": "2 65077  51.6304 171.5636 0003497 213.1314 146.9456 15.49374779  2141"
      },
      "geometry": {
        "type": "Point",
        "coordinates": [
          -13.196666945372124,
          2.17976663245412
        ]
      }
    },
    {
      "type": "Feature",
      "properties": {
        "norad_id": 65304,
        "name": "DRAGON CRS-33",
        "group": "stations",
        "lat": 2.179765872691392,
        "lon": -13.196666343130886,
        "alt_km": 417.0895369009877,
        "timestamp": "2025-12-07T11:27:48.758290+00:00",
        "meta_object_name": "DRAGON CRS-33",
        "meta_object_id": "2025-186A",
        "meta_epoch": "2025-12-06T20:46:13.238400",
        "meta_mean_motion": 15.49374779,
        "meta_eccentricity": 0.00034973,
        "meta_inclination": 51.6304,
        "meta_ra_of_asc_node": 171.5636,
        "meta_arg_of_pericenter": 213.1314,
        "meta_mean_anomaly": 146.9456,
        "meta_ephemeris_type": 0,
        "meta_classification_type": "U",
        "meta_norad_cat_id": 65304,
        "meta_element_set_no": 999,
        "meta_rev_at_epoch": 11,
        "meta_bstar": 0.00025393652,
        "meta_mean_motion_dot": 0.0001375,
        "meta_mean_motion_ddot": 0,
        "tle_line1": "1 65304U 25186A   25340.86543100  .00013750  00000+0  25394-3 0  9992",
        "tle_line2": "2 65304  51.6304 171.5636 0003497 213.1314 146.9456 15.49374779   119"
      },
      "geometry": {
        "type": "Point",
        "coordinates": [
          -13.196666343130886,
          2.179765872691392
        ]
      }
    },
    {
      "type": "Feature",
      "properties": {
        "norad_id": 65586,
        "name": "PROGRESS-MS 32",
        "group": "stations",
        "lat": 2.179765315530914,
        "lon": -13.196665901486423,
        "alt_km": 417.08953695777745,
        "timestamp": "2025-12-07T11:27:48.758301+00:00",
        "meta_object_name": "PROGRESS-MS 32",
        "meta_object_id": "2025-204A",
        "meta_epoch": "2025-12-06T20:46:13.238400",
        "meta_mean_motion": 15.49374779,
        "meta_eccentricity": 0.00034973,
        "meta_inclination": 51.6304,
        "meta_ra_of_asc_node": 171.5636,
        "meta_arg_of_pericenter": 213.1314,
        "meta_mean_anomaly": 146.9456,
        "meta_ephemeris_type": 0,
        "meta_classification_type": "U",
        "meta_norad_cat_id": 65586,
        "meta_element_set_no": 999,
        "meta_rev_at_epoch": 27,
        "meta_bstar": 0.00025393652,
        "meta_mean_motion_dot": 0.0001375,
        "meta_mean_motion_ddot": 0,
        "tle_line1": "1 65586U 25204A   25340.86543100  .00013750  00000+0  25394-3 0  9995",
        "tle_line2": "2 65586  51.6304 171.5636 0003497 213.1314 146.9456 15.49374779   278"
      },
      "geometry": {
        "type": "Point",
        "coordinates": [
          -13.196665901486423,
          2.179765315530914
        ]
      }
    },
    {
      "type": "Feature",
      "properties": {
        "norad_id": 65616,
        "name": "CYGNUS NG-23",
        "group": "stations",
        "lat": 2.179764809022627,
        "lon": -13.196665499992406,
        "alt_km": 417.0895370094122,
        "timestamp": "2025-12-07T11:27:48.758311+00:00",
        "meta_object_name": "CYGNUS NG-23",
        "meta_object_id": "2025-208A",
        "meta_epoch": "2025-12-06T20:46:13.238400",
        "meta_mean_motion": 15.49374779,
        "meta_eccentricity": 0.00034973,
        "meta_inclination": 51.6304,
        "meta_ra_of_asc_node": 171.5636,
        "meta_arg_of_pericenter": 213.1314,
        "meta_mean_anomaly": 146.9456,
        "meta_ephemeris_type": 0,
        "meta_classification_type": "U",
        "meta_norad_cat_id": 65616,
        "meta_element_set_no": 999,
        "meta_rev_at_epoch": 22,
        "meta_bstar": 0.00025393652,
        "meta_mean_motion_dot": 0.0001375,
        "meta_mean_motion_ddot": 0,
        "tle_line1": "1 65616U 25208A   25340.86543100  .00013750  00000+0  25394-3 0  9993",
        "tle_line2": "2 65616  51.6304 171.5636 0003497 213.1314 146.9456 15.49374779   227"
      },
      "geometry": {
        "type": "Point",
        "coordinates": [
          -13.196665499992406,
          2.179764809022627
        ]
      }
    }
  ]
}